GALAXY 25 (G-25)    [PM]
1 24812C 97026A   22362.39583333 -.00000110  00000-0  00000-0 0  3620
2 24812   4.1744  81.7341 0002117 308.6083 183.2432  0.99035815    16
GALAXY 25 (G-25)        
1 24812C 97026A   23001.96310185 -.00000182  00000-0  00000-0 0    16
2 24812   4.1872  81.6356 0001643 260.9807  59.3822  0.99039875    16
GALAXY 25 (G-25)        
1 24812C 97026A   23005.00000000 -.00000184  00000-0  00000-0 0    53
2 24812   4.1954  81.6268 0002004 267.6447  55.4658  0.99037377    14
INTELSAT 5 (IS-5)   [PM]
1 24916C 97046A   22342.63861111  .00000034  00000-0  00000-0 0  3427
2 24916   7.6019  59.8278 0004507 178.5116 235.0707  1.00273909    17
INTELSAT 5 (IS-5)       
1 24916C 97046A   23001.96310185  .00000034  00000-0  00000-0 0    18
2 24916   7.6534  59.6338 0007777 220.7874 333.7508  1.00276848    17
INTELSAT 5 (IS-5)       
1 24916C 97046A   23005.00000000  .00000034  00000-0  00000-0 0    53
2 24916   7.6598  59.6208 0007735 217.9514 352.8920  1.00277355    10
GALAXY 11 (G-11)        
1 26038C 99071A   23001.90865741 -.00000072  00000-0  00000-0 0    15
2 26038   3.5282  85.1749 0002120 220.5664  29.5357  1.00271208    18
GALAXY 11 (G-11)        
1 26038C 99071A   23004.90866898 -.00000072  00000-0  00000-0 0    45
2 26038   3.5377  85.1731 0002061 220.8109  32.2600  1.00271080    15
INTELSAT 9 (IS-9)   [PM]
1 26451C 00043A   22358.55486111 -.00000191  00000-0  00000-0 0  3587
2 26451   7.6191  59.8970 0005287 229.9046 312.9817  1.00274665    19
INTELSAT 9 (IS-9)       
1 26451C 00043A   23001.96310185 -.00000191  00000-0  00000-0 0    10
2 26451   7.6390  59.8236 0003839 171.7615 166.4534  1.00272945    19
INTELSAT 9 (IS-9)       
1 26451C 00043A   23005.00000000 -.00000191  00000-0  00000-0 0    55
2 26451   7.6452  59.8073 0003227 165.9389 188.5650  1.00274145    19
INTELSAT 1R (IS-1R)     
1 26608C 00072A   23001.90865741 -.00000047  00000-0  00000-0 0    13
2 26608   4.9003  78.3825 0000609 281.9973 225.0875  1.00271084    10
INTELSAT 1R (IS-1R)     
1 26608C 00072A   23004.90866898 -.00000047  00000-0  00000-0 0    43
2 26608   4.9085  78.3263 0000845 272.8745 237.2297  1.00270626    18
INTELSAT 10 (IS-10)     
1 26766C 01019A   23001.96310185  .00000127  00000-0  00000-0 0    11
2 26766   6.0509  71.6235 0005419 218.4824 335.7200  1.00275858    18
INTELSAT 10 (IS-10) [PM]
1 26766C 01019A   23003.64178241  .00000127  00000-0  00000-0 0    35
2 26766   6.0557  71.6372 0002642 216.9393 223.2616  1.00270051    14
INTELSAT 10 (IS-10)     
1 26766C 01019A   23005.00000000  .00000127  00000-0  00000-0 0    56
2 26766   6.0584  71.6148 0005287 214.4662 356.0274  1.00273101    19
INTELSAT 901            
1 26824C 01024A   23001.96310185 -.00000110  00000-0  00000-0 0    15
2 26824   0.0039 349.2451 0001294 322.2000 109.1101  1.00270371    14
INTELSAT 901            
1 26824C 01024A   23005.00000000 -.00005039  00000-0  00000-0 0    55
2 26824   0.0030 348.6098 0000981 313.1061 135.1150  1.00270196    11
INTELSAT 902            
1 26900C 01039A   23001.96310185 -.00000192  00000-0  00000-0 0    16
2 26900   2.9070  86.7583 0003599 190.0916 121.0868  1.00272426    17
INTELSAT 902        [PM]
1 26900C 01039A   23002.66862268 -.00000192  00000-0  00000-0 0    29
2 26900   2.9087  86.7497 0003611 199.3724   6.4954  1.00273195    19
INTELSAT 902            
1 26900C 01039A   23005.00000000 -.00000192  00000-0  00000-0 0    51
2 26900   2.9154  86.7539 0003472 192.7423 134.7235  1.00271704    10
INTELSAT 904        [PM]
1 27380C 02007A   23001.29702546 -.00000123  00000-0  00000-0 0    11
2 27380   3.7721 189.7184 0002967 192.6837 155.6933  1.00273117    15
INTELSAT 904            
1 27380C 02007A   23001.96310185 -.00000123  00000-0  00000-0 0    19
2 27380   3.7361  83.7957 0003285 188.6110 146.1397  1.00272076    11
INTELSAT 904            
1 27380C 02007A   23005.00000000 -.00000123  00000-0  00000-0 0    54
2 27380   3.7447  83.7852 0003107 191.5207 159.5172  1.00272254    10
INTELSAT 905        [PM]
1 27438C 02027A   22361.98730324 -.00000094  00000-0  00000-0 0  3612
2 27438   3.5440  84.6291 0002895 170.0247 172.6934  1.00271842    15
INTELSAT 905            
1 27438C 02027A   23001.96310185 -.00000094  00000-0  00000-0 0    12
2 27438   3.5589  84.5154 0003085 182.6723 156.3503  1.00272026    12
INTELSAT 905            
1 27438C 02027A   23005.00000000 -.00000094  00000-0  00000-0 0    57
2 27438   3.5675  84.5073 0002942 185.5427 169.7625  1.00272293    11
GALAXY 3C (G-3C)        
1 27445C 02030A   23001.90865741 -.00000062  00000-0  00000-0 0    16
2 27445   0.4837  91.9421 0001411 216.2534  25.3365  1.00271710    16
GALAXY 3C (G-3C)        
1 27445C 02030A   23004.90866898 -.00000062  00000-0  00000-0 0    46
2 27445   0.4924  92.0869 0001429 216.2588  28.1506  1.00271662    13
INTELSAT 906            
1 27513C 02041A   23001.96310185  .00000105  00000-0  00000-0 0    14
2 27513   2.5770  88.1753 0004869 180.5824 243.4285  1.00273333    19
INTELSAT 906        [PM]
1 27513C 02041A   23003.11655093  .00000105  00000-0  00000-0 0    35
2 27513   2.5805  88.1695 0004947 181.7416 298.6623  1.00270122    11
INTELSAT 906            
1 27513C 02041A   23005.00000000  .00000105  00000-0  00000-0 0    59
2 27513   2.5857  88.1774 0004875 182.2806 258.0027  1.00270920    19
GALAXY 12 (G-12)        
1 27715C 03013B   23001.96310185  .00000149  00000-0  00000-0 0    16
2 27715   3.7694  83.4549 0002764 205.7255  29.8608  1.00273466    14
GALAXY 12 (G-12)        
1 27715C 03013B   23005.00000000  .00000149  00000-0  00000-0 0    51
2 27715   3.7774  83.4494 0002824 198.8071  53.0786  1.00269881    19
GALAXY 12 (G-12)    [PM]
1 27715C 03013B   23005.60887732  .00000149  00000-0  00000-0 0    52
2 27715   3.7786  83.4601 0001826 218.1806 253.4918  1.00269653    15
GALAXY 23 (G-23)    [PM]
1 27854C 03034A   22365.52603009  .00000087  00000-0  00000-0 0  3651
2 27854   0.0055 167.6425 0003091 301.9703  58.6763  1.00270867    12
GALAXY 23 (G-23)        
1 27854C 03034A   23001.96310185 -.00003100  00000-0  00000-0 0    14
2 27854   0.0382 190.2433 0003128  92.2002  44.6057  1.00271188    17
GALAXY 23 (G-23)        
1 27854C 03034A   23005.00000000  .00000120  00000-0  00000-0 0    57
2 27854   0.0434 216.5926 0003229  69.8960  56.8355  1.00271023    13
GALAXY 23 (G-23)    [PM]
1 27854C 03034A   23007.51716435  .00000085  00000-0  00000-0 0    73
2 27854   0.0150 223.9030 0003235 252.1193  55.9625  1.00270667    11
GALAXY 13           [PM]
1 27954C 03044A   22359.74696759  .00000241  00000-0  00000-0 0  3599
2 27954   0.0041  52.4064 0001345 127.4474  56.2839  1.00270405    10
GALAXY 13               
1 27954C 03044A   23001.96310185  .00000069  00000-0  00000-0 0    16
2 27954   0.0018 347.8104 0001098 225.5962 107.6401  1.00272803    17
GALAXY 13               
1 27954C 03044A   23005.00000000  .00000091  00000-0  00000-0 0    56
2 27954   0.0023  39.6479 0001198 182.4826 115.2061  1.00270145    19
INTELSAT 10-02          
1 28358C 04022A   23001.90865741  .00000079  00000-0  00000-0 0    10
2 28358   0.0262 286.7882 0001088   7.3703 133.2342  1.00269903    15
INTELSAT 10-02          
1 28358C 04022A   23004.90866898  .00000084  00000-0  00000-0 0    46
2 28358   0.0386 274.7185 0001108  26.8134 128.8223  1.00270375    15
GALAXY 28 (G-28)        
1 28702C 05022A   23001.90865741 -.00000095  00000-0  00000-0 0    13
2 28702   0.0431  71.7843 0003414 230.9144  36.6922  1.00271277    10
GALAXY 28 (G-28)        
1 28702C 05022A   23004.90866898 -.00000095  00000-0  00000-0 0    43
2 28702   0.0513  76.4778 0003301 212.4463  53.4351  1.00270880    16
GALAXY 28 (G-28)    [PM]
1 28702C 05022A   23008.85208333 -.00000095  00000-0  00000-0 0    89
2 28702   0.0581  83.4174 0003141 210.6292  31.8147  1.00272882    18
GALAXY 14 (G-14)        
1 28790C 05030A   23001.96310185  .00000246  00000-0  00000-0 0    19
2 28790   1.7663  90.0154 0002230 188.5480 202.3895  1.00275246    18
GALAXY 14 (G-14)    [PM]
1 28790C 05030A   23003.60763889  .00000246  00000-0  00000-0 0    37
2 28790   1.7712  90.0080 0002508 182.5285  82.0617  1.00269457    18
GALAXY 14 (G-14)        
1 28790C 05030A   23005.00000000  .00000246  00000-0  00000-0 0    54
2 28790   1.7753  90.0261 0002289 183.7590 223.4251  1.00270717    18
GALAXY 15 (G-15)        
1 28884C 05041A   23001.96310185  .00000103  00000-0  00000-0 0    17
2 28884   0.3212  92.2129 0004940 195.3217  39.5565  1.00315327    16
GALAXY 15 (G-15)        
1 28884C 05041A   23005.00000000  .00000100  00000-0  00000-0 0    59
2 28884   0.3304  92.3916 0004993 196.8562  54.6015  1.00316104    12
GALAXY 16 (G-16)        
1 29236C 06023A   23001.96310185 -.00000023  00000-0  00000-0 0    12
2 29236   0.0417 188.0895 0003089 104.3175  56.6373  1.00272143    17
GALAXY 16 (G-16)        
1 29236C 06023A   23005.00000000 -.00000031  00000-0  00000-0 0    56
2 29236   0.0063  63.1696 0003202 234.1861  67.9695  1.00272071    19
GALAXY 16 (G-16)    [PM]
1 29236C 06023A   23005.50497685 -.00000026  00000-0  00000-0 0    54
2 29236   0.0073 195.3669 0003233 283.0223  69.2254  1.00271335    15
GALAXY 17 (G-17)        
1 31307C 07016B   23001.96310185 -.00000084  00000-0  00000-0 0    14
2 31307   0.0260  44.9588 0002784 238.6840  73.4114  1.00272386    14
GALAXY 17 (G-17)        
1 31307C 07016B   23005.00000000 -.00000084  00000-0  00000-0 0    59
2 31307   0.0169   9.3915 0002720 280.8453  83.0800  1.00270101    12
GALAXY 17 (G-17)    [PM]
1 31307C 07016B   23005.00630787 -.00000084  00000-0  00000-0 0    50
2 31307   0.0169   9.4267 0002710 277.3690  88.7981  1.00272518    12
INTELSAT 11 (IS-11)     
1 32253C 07044B   23001.96310185 -.00000178  00000-0  00000-0 0    10
2 32253   0.2946  93.5480 0003822 205.6520 105.8431  1.00271798    10
